{
	"type": "Feature",
	"properties": {
		"name": "十段线",
		"name_en": "Nine-dash_line"
	},
	"geometry": {
		"type": "MultiLineString",
		"coordinates": [
			[
				[109.51763678906526, 16.360467782665847],
				[109.72339159230361, 16.05587198177934],
				[109.8780414893003, 15.766823920473868],
				[109.96506402665503, 15.526031073258686],
				[109.98526818797363, 15.335615618596712]
			],
			[
				[110.48331454715199, 12.431407837351566],
				[110.48240767589328, 12.085792287259398],
				[110.45136562643113, 11.863835000833953],
				[110.25652028695671, 11.393616070326182]
			],
			[
				[108.3388949586325, 7.26656318024262],
				[108.30727608084116, 6.727803403200289],
				[108.35631901989032, 6.112648053307836]
			],
			[
				[111.94112275674237, 3.553559321848772],
				[112.40151782268552, 3.646409974664658],
				[112.92104341055976, 3.845112027649191]
			],
			[
				[115.69079809651517, 7.29016984601141],
				[116.4095482213759, 8.137962397303875]
			],
			[
				[118.63503455703679, 11.080904139262175],
				[118.85587024190139, 11.457907321145406],
				[119.10128629647166, 12.062751715859875],
				[119.12181771101825, 12.135585760471585]
			],
			[
				[119.60808384544805, 18.143451232827125],
				[119.91075760817219, 18.77194701315816],
				[120.11918953031866, 19.117669954512905]
			],
			[
				[121.40591812413318, 20.8001943859176],
				[122.12216430894797, 21.716094829922323]
			],
			[
				[122.80328441666389, 23.665545127578547],
				[123.00481138309124, 24.74934291726869]
			],
			[
				[119.16836075308866, 15.107448879733406],
				[119.16981236678279, 15.755038547478351],
				[119.17823197590195, 16.265658015720753]
			]
		]
	}
}